{
  "type": "FeatureCollection",
  "features": [
    {
      "type": "Feature",
      "properties": {
        "norad_id": 43260,
        "name": "GAOFEN-1 03",
        "group": "resource",
        "lat": -57.584388187225784,
        "lon": -151.02206790951894,
        "alt_km": 647.8547879867565,
        "timestamp": "2025-12-10T05:46:13.454956+00:00",
        "meta_object_name": "GAOFEN-1 03",
        "meta_object_id": "2018-031B",
        "meta_epoch": "2025-12-09T20:33:39.191040",
        "meta_mean_motion": 14.76428318,
        "meta_eccentricity": 0.0002178,
        "meta_inclination": 98.0803,
        "meta_ra_of_asc_node": 41.522,
        "meta_arg_of_pericenter": 334.9691,
        "meta_mean_anomaly": 25.1412,
        "meta_ephemeris_type": 0,
        "meta_classification_type": "U",
        "meta_norad_cat_id": 43260,
        "meta_element_set_no": 999,
        "meta_rev_at_epoch": 41475,
        "meta_bstar": 0.0002499,
        "meta_mean_motion_dot": 1.686e-05,
        "meta_mean_motion_ddot": 0,
        "tle_line1": "1 43260U 18031B   25343.85670360  .00001686  00000+0  24990-3 0  9997",
        "tle_line2": "2 43260  98.0803  41.5220 0002178 334.9691  25.1412 14.76428318414752"
      },
      "geometry": {
        "type": "Point",
        "coordinates": [
          -151.02206790951894,
          -57.584388187225784
        ]
      }
    },
    {
      "type": "Feature",
      "properties": {
        "norad_id": 43262,
        "name": "GAOFEN-1 04",
        "group": "resource",
        "lat": 7.5071157140363045,
        "lon": 41.00173466356385,
        "alt_km": 641.9885804548885,
        "timestamp": "2025-12-10T05:46:13.454965+00:00",
        "meta_object_name": "GAOFEN-1 04",
        "meta_object_id": "2018-031D",
        "meta_epoch": "2025-12-09T19:58:37.459200",
        "meta_mean_motion": 14.76438982,
        "meta_eccentricity": 0.0001178,
        "meta_inclination": 98.0806,
        "meta_ra_of_asc_node": 41.6663,
        "meta_arg_of_pericenter": 54.8567,
        "meta_mean_anomaly": 305.2752,
        "meta_ephemeris_type": 0,
        "meta_classification_type": "U",
        "meta_norad_cat_id": 43262,
        "meta_element_set_no": 999,
        "meta_rev_at_epoch": 41474,
        "meta_bstar": 0.00014617,
        "meta_mean_motion_dot": 9.65e-06,
        "meta_mean_motion_ddot": 0,
        "tle_line1": "1 43262U 18031D   25343.83237800  .00000965  00000+0  14617-3 0  9999",
        "tle_line2": "2 43262  98.0806  41.6663 0001178  54.8567 305.2752 14.76438982414744"
      },
      "geometry": {
        "type": "Point",
        "coordinates": [
          41.00173466356385,
          7.5071157140363045
        ]
      }
    },
    {
      "type": "Feature",
      "properties": {
        "norad_id": 43437,
        "name": "SENTINEL-3B",
        "group": "resource",
        "lat": -77.4818752894183,
        "lon": -173.67768518673853,
        "alt_km": 810.9837316245948,
        "timestamp": "2025-12-10T05:46:13.454975+00:00",
        "meta_object_name": "SENTINEL-3B",
        "meta_object_id": "2018-039A",
        "meta_epoch": "2025-12-09T10:02:13.739712",
        "meta_mean_motion": 14.26741127,
        "meta_eccentricity": 0.0001551,
        "meta_inclination": 98.627,
        "meta_ra_of_asc_node": 48.6509,
        "meta_arg_of_pericenter": 106.2359,
        "meta_mean_anomaly": 253.8993,
        "meta_ephemeris_type": 0,
        "meta_classification_type": "U",
        "meta_norad_cat_id": 43437,
        "meta_element_set_no": 999,
        "meta_rev_at_epoch": 39706,
        "meta_bstar": 0.00013773156,
        "meta_mean_motion_dot": 2.9e-06,
        "meta_mean_motion_ddot": 0,
        "tle_line1": "1 43437U 18039A   25343.41821458  .00000290  00000+0  13773-3 0  9996",
        "tle_line2": "2 43437  98.6270  48.6509 0001551 106.2359 253.8993 14.26741127397064"
      },
      "geometry": {
        "type": "Point",
        "coordinates": [
          -173.67768518673853,
          -77.4818752894183
        ]
      }
    },
    {
      "type": "Feature",
      "properties": {
        "norad_id": 43461,
        "name": "GAOFEN-5 01",
        "group": "resource",
        "lat": -51.81685987831483,
        "lon": -41.96386324191411,
        "alt_km": 698.2040451284865,
        "timestamp": "2025-12-10T05:46:13.454985+00:00",
        "meta_object_name": "GAOFEN-5 01",
        "meta_object_id": "2018-043A",
        "meta_epoch": "2025-12-09T20:08:41.307936",
        "meta_mean_motion": 14.60405655,
        "meta_eccentricity": 0.0001152,
        "meta_inclination": 98.4321,
        "meta_ra_of_asc_node": 306.756,
        "meta_arg_of_pericenter": 351.496,
        "meta_mean_anomaly": 8.622,
        "meta_ephemeris_type": 0,
        "meta_classification_type": "U",
        "meta_norad_cat_id": 43461,
        "meta_element_set_no": 999,
        "meta_rev_at_epoch": 40405,
        "meta_bstar": 0.00020338,
        "meta_mean_motion_dot": 9.36e-06,
        "meta_mean_motion_ddot": 0,
        "tle_line1": "1 43461U 18043A   25343.83936699  .00000936  00000+0  20338-3 0  9990",
        "tle_line2": "2 43461  98.4321 306.7560 0001152 351.4960   8.6220 14.60405655404058"
      },
      "geometry": {
        "type": "Point",
        "coordinates": [
          -41.96386324191411,
          -51.81685987831483
        ]
      }
    },
    {
      "type": "Feature",
      "properties": {
        "norad_id": 43484,
        "name": "GAOFEN-6",
        "group": "resource",
        "lat": 21.628678482722826,
        "lon": -128.29225525773344,
        "alt_km": 639.6177430840635,
        "timestamp": "2025-12-10T05:46:13.454995+00:00",
        "meta_object_name": "GAOFEN-6",
        "meta_object_id": "2018-048A",
        "meta_epoch": "2025-12-09T20:55:34.651776",
        "meta_mean_motion": 14.76556527,
        "meta_eccentricity": 0.0013285,
        "meta_inclination": 97.803,
        "meta_ra_of_asc_node": 48.2348,
        "meta_arg_of_pericenter": 71.8166,
        "meta_mean_anomaly": 288.4489,
        "meta_ephemeris_type": 0,
        "meta_classification_type": "U",
        "meta_norad_cat_id": 43484,
        "meta_element_set_no": 999,
        "meta_rev_at_epoch": 40545,
        "meta_bstar": 0.00014383,
        "meta_mean_motion_dot": 9.55e-06,
        "meta_mean_motion_ddot": 0,
        "tle_line1": "1 43484U 18048A   25343.87192884  .00000955  00000+0  14383-3 0  9998",
        "tle_line2": "2 43484  97.8030  48.2348 0013285  71.8166 288.4489 14.76556527405458"
      },
      "geometry": {
        "type": "Point",
        "coordinates": [
          -128.29225525773344,
          21.628678482722826
        ]
      }
    },
    {
      "type": "Feature",
      "properties": {
        "norad_id": 43585,
        "name": "GAOFEN-11 01",
        "group": "resource",
        "lat": 31.998449206575206,
        "lon": 42.69281631263012,
        "alt_km": 416.39709478016357,
        "timestamp": "2025-12-10T05:46:13.455010+00:00",
        "meta_object_name": "GAOFEN-11 01",
        "meta_object_id": "2018-063A",
        "meta_epoch": "2025-12-09T20:19:46.785792",
        "meta_mean_motion": 15.49082461,
        "meta_eccentricity": 0.0004573,
        "meta_inclination": 97.1556,
        "meta_ra_of_asc_node": 46.8051,
        "meta_arg_of_pericenter": 327.3846,
        "meta_mean_anomaly": 32.7122,
        "meta_ephemeris_type": 0,
        "meta_classification_type": "U",
        "meta_norad_cat_id": 43585,
        "meta_element_set_no": 999,
        "meta_rev_at_epoch": 41097,
        "meta_bstar": 0.00026813,
        "meta_mean_motion_dot": 0.00014472,
        "meta_mean_motion_ddot": 0,
        "tle_line1": "1 43585U 18063A   25343.84706928  .00014472  00000+0  26813-3 0  9994",
        "tle_line2": "2 43585  97.1556  46.8051 0004573 327.3846  32.7122 15.49082461410974"
      },
      "geometry": {
        "type": "Point",
        "coordinates": [
          42.69281631263012,
          31.998449206575206
        ]
      }
    },
    {
      "type": "Feature",
      "properties": {
        "norad_id": 43613,
        "name": "ICESAT-2",
        "group": "resource",
        "lat": -43.61733774100834,
        "lon": -118.024876449837,
        "alt_km": 489.2773479202715,
        "timestamp": "2025-12-10T05:46:13.455020+00:00",
        "meta_object_name": "ICESAT-2",
        "meta_object_id": "2018-070A",
        "meta_epoch": "2025-12-09T20:31:56.171136",
        "meta_mean_motion": 15.28280299,
        "meta_eccentricity": 0.0002347,
        "meta_inclination": 92.0044,
        "meta_ra_of_asc_node": 239.9589,
        "meta_arg_of_pericenter": 156.1641,
        "meta_mean_anomaly": 203.9717,
        "meta_ephemeris_type": 0,
        "meta_classification_type": "U",
        "meta_norad_cat_id": 43613,
        "meta_element_set_no": 999,
        "meta_rev_at_epoch": 40354,
        "meta_bstar": 0.00069054,
        "meta_mean_motion_dot": 0.00019037,
        "meta_mean_motion_ddot": 0,
        "tle_line1": "1 43613U 18070A   25343.85551124  .00019037  00000+0  69054-3 0  9997",
        "tle_line2": "2 43613  92.0044 239.9589 0002347 156.1641 203.9717 15.28280299403544"
      },
      "geometry": {
        "type": "Point",
        "coordinates": [
          -118.024876449837,
          -43.61733774100834
        ]
      }
    }
  ]
}